[{"OBJECT_NAME":"STARLINK-5480","OBJECT_ID":"2023-021AN","EPOCH":"2026-03-09T22:00:01.999584","MEAN_MOTION":14.98352472,"ECCENTRICITY":0.0003256,"INCLINATION":70.001,"RA_OF_ASC_NODE":163.9699,"ARG_OF_PERICENTER":271.3412,"MEAN_ANOMALY":188.798,"EPHEMERIS_TYPE":0,"CLASSIFICATION_TYPE":"U","NORAD_CAT_ID":55664,"ELEMENT_SET_NO":999,"REV_AT_EPOCH":576,"BSTAR":-0.0037639134,"MEAN_MOTION_DOT":-0.00044745,"MEAN_MOTION_DDOT":0},{"OBJECT_NAME":"CZ-6A DEB","OBJECT_ID":"2022-151AD","EPOCH":"2026-03-09T17:57:16.876800","MEAN_MOTION":14.82404648,"ECCENTRICITY":0.00830504,"INCLINATION":98.5956,"RA_OF_ASC_NODE":149.7366,"ARG_OF_PERICENTER":144.8242,"MEAN_ANOMALY":215.8491,"EPHEMERIS_TYPE":0,"CLASSIFICATION_TYPE":"U","NORAD_CAT_ID":54286,"ELEMENT_SET_NO":999,"REV_AT_EPOCH":17665,"BSTAR":0.0024695281,"MEAN_MOTION_DOT":0.00021003,"MEAN_MOTION_DDOT":0}]
